[{"OBJECT_NAME":"TIANMU-1 09","OBJECT_ID":"2023-101C","EPOCH":"2026-03-09T22:17:34.703232","MEAN_MOTION":15.29080822,"ECCENTRICITY":0.00049013,"INCLINATION":97.267,"RA_OF_ASC_NODE":121.1263,"ARG_OF_PERICENTER":139.4293,"MEAN_ANOMALY":220.7314,"EPHEMERIS_TYPE":0,"CLASSIFICATION_TYPE":"U","NORAD_CAT_ID":57401,"ELEMENT_SET_NO":999,"REV_AT_EPOCH":14647,"BSTAR":0.00030540035,"MEAN_MOTION_DOT":8.553e-5,"MEAN_MOTION_DDOT":0},{"OBJECT_NAME":"STARLINK-32737","OBJECT_ID":"2024-251N","EPOCH":"2026-03-09T23:16:15.393504","MEAN_MOTION":15.30192317,"ECCENTRICITY":0.00013207,"INCLINATION":53.1596,"RA_OF_ASC_NODE":331.704,"ARG_OF_PERICENTER":131.4882,"MEAN_ANOMALY":228.6233,"EPHEMERIS_TYPE":0,"CLASSIFICATION_TYPE":"U","NORAD_CAT_ID":62444,"ELEMENT_SET_NO":999,"REV_AT_EPOCH":6802,"BSTAR":0.00063914212,"MEAN_MOTION_DOT":0.00018613,"MEAN_MOTION_DDOT":0}]
